CCSDS_OMM_VERS = 2.0
CREATION_DATE  = 
ORIGINATOR     = 

OBJECT_NAME    = STARLINK-37127
OBJECT_ID      = 2026-054E
CENTER_NAME    = EARTH
REF_FRAME      = TEME
TIME_SYSTEM    = UTC
MEAN_ELEMENT_THEORY = SGP/SGP4

EPOCH          = 2026-04-05T14:10:40.138176
MEAN_MOTION    = 15.75316010
ECCENTRICITY   = .00013572
INCLINATION    = 53.1589
RA_OF_ASC_NODE = 178.2121
ARG_OF_PERICENTER = 77.9499
MEAN_ANOMALY   = 282.1673

EPHEMERIS_TYPE = 0
CLASSIFICATION_TYPE = U
NORAD_CAT_ID   = 68236
ELEMENT_SET_NO = 999
REV_AT_EPOCH   = 302
BSTAR          = .72836793E-3
MEAN_MOTION_DOT = .112891E-2
MEAN_MOTION_DDOT = 0

CCSDS_OMM_VERS = 2.0
CREATION_DATE  = 
ORIGINATOR     = 

OBJECT_NAME    = STARLINK-37095
OBJECT_ID      = 2026-054F
CENTER_NAME    = EARTH
REF_FRAME      = TEME
TIME_SYSTEM    = UTC
MEAN_ELEMENT_THEORY = SGP/SGP4

EPOCH          = 2026-04-05T14:04:08.181120
MEAN_MOTION    = 15.75330481
ECCENTRICITY   = .00013219
INCLINATION    = 53.1592
RA_OF_ASC_NODE = 178.1819
ARG_OF_PERICENTER = 70.6629
MEAN_ANOMALY   = 289.4534

EPHEMERIS_TYPE = 0
CLASSIFICATION_TYPE = U
NORAD_CAT_ID   = 68237
ELEMENT_SET_NO = 999
REV_AT_EPOCH   = 302
BSTAR          = .93953524E-3
MEAN_MOTION_DOT = .146484E-2
MEAN_MOTION_DDOT = 0

CCSDS_OMM_VERS = 2.0
CREATION_DATE  = 
ORIGINATOR     = 

OBJECT_NAME    = STARLINK-37097
OBJECT_ID      = 2026-054G
CENTER_NAME    = EARTH
REF_FRAME      = TEME
TIME_SYSTEM    = UTC
MEAN_ELEMENT_THEORY = SGP/SGP4

EPOCH          = 2026-04-05T11:49:29.877024
MEAN_MOTION    = 15.80990220
ECCENTRICITY   = .00013015
INCLINATION    = 53.1581
RA_OF_ASC_NODE = 178.2971
ARG_OF_PERICENTER = 51.7228
MEAN_ANOMALY   = 308.3912

EPHEMERIS_TYPE = 0
CLASSIFICATION_TYPE = U
NORAD_CAT_ID   = 68238
ELEMENT_SET_NO = 999
REV_AT_EPOCH   = 301
BSTAR          = .99447323E-3
MEAN_MOTION_DOT = .201306E-2
MEAN_MOTION_DDOT = 0

CCSDS_OMM_VERS = 2.0
CREATION_DATE  = 
ORIGINATOR     = 

OBJECT_NAME    = STARLINK-37096
OBJECT_ID      = 2026-054H
CENTER_NAME    = EARTH
REF_FRAME      = TEME
TIME_SYSTEM    = UTC
MEAN_ELEMENT_THEORY = SGP/SGP4

EPOCH          = 2026-04-05T10:15:13.480704
MEAN_MOTION    = 15.82270487
ECCENTRICITY   = .0004502
INCLINATION    = 53.1577
RA_OF_ASC_NODE = 178.5979
ARG_OF_PERICENTER = 259.8660
MEAN_ANOMALY   = 100.1855

EPHEMERIS_TYPE = 0
CLASSIFICATION_TYPE = U
NORAD_CAT_ID   = 68239
ELEMENT_SET_NO = 999
REV_AT_EPOCH   = 300
BSTAR          = .20460798E-2
MEAN_MOTION_DOT = .453551E-2
MEAN_MOTION_DDOT = 0

CCSDS_OMM_VERS = 2.0
CREATION_DATE  = 
ORIGINATOR     = 

OBJECT_NAME    = STARLINK-37092
OBJECT_ID      = 2026-054J
CENTER_NAME    = EARTH
REF_FRAME      = TEME
TIME_SYSTEM    = UTC
MEAN_ELEMENT_THEORY = SGP/SGP4

EPOCH          = 2026-04-05T14:00:03.000384
MEAN_MOTION    = 15.75262821
ECCENTRICITY   = .00012642
INCLINATION    = 53.1578
RA_OF_ASC_NODE = 177.9824
ARG_OF_PERICENTER = 94.5612
MEAN_ANOMALY   = 354.3419

EPHEMERIS_TYPE = 0
CLASSIFICATION_TYPE = U
NORAD_CAT_ID   = 68240
ELEMENT_SET_NO = 999
REV_AT_EPOCH   = 423
BSTAR          = -.36361136E-3
MEAN_MOTION_DOT = -.56067E-3
MEAN_MOTION_DDOT = 0

CCSDS_OMM_VERS = 2.0
CREATION_DATE  = 
ORIGINATOR     = 

OBJECT_NAME    = STARLINK-37094
OBJECT_ID      = 2026-054K
CENTER_NAME    = EARTH
REF_FRAME      = TEME
TIME_SYSTEM    = UTC
MEAN_ELEMENT_THEORY = SGP/SGP4

EPOCH          = 2026-04-05T13:17:17.163168
MEAN_MOTION    = 15.81024384
ECCENTRICITY   = .0001302
INCLINATION    = 53.1580
RA_OF_ASC_NODE = 177.9650
ARG_OF_PERICENTER = 39.1025
MEAN_ANOMALY   = 321.0092

EPHEMERIS_TYPE = 0
CLASSIFICATION_TYPE = U
NORAD_CAT_ID   = 68241
ELEMENT_SET_NO = 999
REV_AT_EPOCH   = 302
BSTAR          = .11245482E-2
MEAN_MOTION_DOT = .228823E-2
MEAN_MOTION_DDOT = 0

CCSDS_OMM_VERS = 2.0
CREATION_DATE  = 
ORIGINATOR     = 

OBJECT_NAME    = STARLINK-36356
OBJECT_ID      = 2026-054L
CENTER_NAME    = EARTH
REF_FRAME      = TEME
TIME_SYSTEM    = UTC
MEAN_ELEMENT_THEORY = SGP/SGP4

EPOCH          = 2026-04-05T14:00:03.000384
MEAN_MOTION    = 15.75262857
ECCENTRICITY   = .00010601
INCLINATION    = 53.1582
RA_OF_ASC_NODE = 178.0346
ARG_OF_PERICENTER = 85.4780
MEAN_ANOMALY   = 337.6722

EPHEMERIS_TYPE = 0
CLASSIFICATION_TYPE = U
NORAD_CAT_ID   = 68242
ELEMENT_SET_NO = 999
REV_AT_EPOCH   = 427
BSTAR          = -.37339489E-3
MEAN_MOTION_DOT = -.57547E-3
MEAN_MOTION_DDOT = 0

CCSDS_OMM_VERS = 2.0
CREATION_DATE  = 
ORIGINATOR     = 

OBJECT_NAME    = STARLINK-36345
OBJECT_ID      = 2026-054M
CENTER_NAME    = EARTH
REF_FRAME      = TEME
TIME_SYSTEM    = UTC
MEAN_ELEMENT_THEORY = SGP/SGP4

EPOCH          = 2026-04-05T12:25:45.574176
MEAN_MOTION    = 15.75366438
ECCENTRICITY   = .00016168
INCLINATION    = 53.1594
RA_OF_ASC_NODE = 178.4645
ARG_OF_PERICENTER = 136.2972
MEAN_ANOMALY   = 223.8177

EPHEMERIS_TYPE = 0
CLASSIFICATION_TYPE = U
NORAD_CAT_ID   = 68243
ELEMENT_SET_NO = 999
REV_AT_EPOCH   = 301
BSTAR          = .11892684E-2
MEAN_MOTION_DOT = .186779E-2
MEAN_MOTION_DDOT = 0

CCSDS_OMM_VERS = 2.0
CREATION_DATE  = 
ORIGINATOR     = 

OBJECT_NAME    = STARLINK-36310
OBJECT_ID      = 2026-054N
CENTER_NAME    = EARTH
REF_FRAME      = TEME
TIME_SYSTEM    = UTC
MEAN_ELEMENT_THEORY = SGP/SGP4

EPOCH          = 2026-04-05T14:44:00.288672
MEAN_MOTION    = 15.80990562
ECCENTRICITY   = .00012195
INCLINATION    = 53.1584
RA_OF_ASC_NODE = 177.6281
ARG_OF_PERICENTER = 64.9795
MEAN_ANOMALY   = 295.1354

EPHEMERIS_TYPE = 0
CLASSIFICATION_TYPE = U
NORAD_CAT_ID   = 68244
ELEMENT_SET_NO = 999
REV_AT_EPOCH   = 303
BSTAR          = .1111608E-2
MEAN_MOTION_DOT = .225747E-2
MEAN_MOTION_DDOT = 0

CCSDS_OMM_VERS = 2.0
CREATION_DATE  = 
ORIGINATOR     = 

OBJECT_NAME    = STARLINK-36247
OBJECT_ID      = 2026-054P
CENTER_NAME    = EARTH
REF_FRAME      = TEME
TIME_SYSTEM    = UTC
MEAN_ELEMENT_THEORY = SGP/SGP4

EPOCH          = 2026-04-05T13:14:03.153696
MEAN_MOTION    = 15.80955526
ECCENTRICITY   = .00013182
INCLINATION    = 53.1583
RA_OF_ASC_NODE = 177.9502
ARG_OF_PERICENTER = 65.1216
MEAN_ANOMALY   = 294.9944

EPHEMERIS_TYPE = 0
CLASSIFICATION_TYPE = U
NORAD_CAT_ID   = 68245
ELEMENT_SET_NO = 999
REV_AT_EPOCH   = 302
BSTAR          = .46200169E-3
MEAN_MOTION_DOT = .9181E-3
MEAN_MOTION_DDOT = 0

CCSDS_OMM_VERS = 2.0
CREATION_DATE  = 
ORIGINATOR     = 

OBJECT_NAME    = STARLINK-37043
OBJECT_ID      = 2026-054Q
CENTER_NAME    = EARTH
REF_FRAME      = TEME
TIME_SYSTEM    = UTC
MEAN_ELEMENT_THEORY = SGP/SGP4

EPOCH          = 2026-04-05T13:11:53.556288
MEAN_MOTION    = 15.80972414
ECCENTRICITY   = .0001487
INCLINATION    = 53.1583
RA_OF_ASC_NODE = 177.9398
ARG_OF_PERICENTER = 77.7091
MEAN_ANOMALY   = 282.4098

EPHEMERIS_TYPE = 0
CLASSIFICATION_TYPE = U
NORAD_CAT_ID   = 68246
ELEMENT_SET_NO = 999
REV_AT_EPOCH   = 302
BSTAR          = .93001449E-3
MEAN_MOTION_DOT = .187761E-2
MEAN_MOTION_DDOT = 0

CCSDS_OMM_VERS = 2.0
CREATION_DATE  = 
ORIGINATOR     = 

OBJECT_NAME    = STARLINK-37044
OBJECT_ID      = 2026-054R
CENTER_NAME    = EARTH
REF_FRAME      = TEME
TIME_SYSTEM    = UTC
MEAN_ELEMENT_THEORY = SGP/SGP4

EPOCH          = 2026-04-05T14:42:56.171232
MEAN_MOTION    = 15.81260472
ECCENTRICITY   = .00017191
INCLINATION    = 53.1581
RA_OF_ASC_NODE = 177.6228
ARG_OF_PERICENTER = 35.1642
MEAN_ANOMALY   = 324.9495

EPHEMERIS_TYPE = 0
CLASSIFICATION_TYPE = U
NORAD_CAT_ID   = 68247
ELEMENT_SET_NO = 999
REV_AT_EPOCH   = 303
BSTAR          = .24103431E-2
MEAN_MOTION_DOT = .513495E-2
MEAN_MOTION_DDOT = 0

CCSDS_OMM_VERS = 2.0
CREATION_DATE  = 
ORIGINATOR     = 

OBJECT_NAME    = STARLINK-36997
OBJECT_ID      = 2026-054S
CENTER_NAME    = EARTH
REF_FRAME      = TEME
TIME_SYSTEM    = UTC
MEAN_ELEMENT_THEORY = SGP/SGP4

EPOCH          = 2026-04-05T13:50:35.789568
MEAN_MOTION    = 15.75299408
ECCENTRICITY   = .00017973
INCLINATION    = 53.1589
RA_OF_ASC_NODE = 178.1183
ARG_OF_PERICENTER = 56.4570
MEAN_ANOMALY   = 303.6621

EPHEMERIS_TYPE = 0
CLASSIFICATION_TYPE = U
NORAD_CAT_ID   = 68248
ELEMENT_SET_NO = 999
REV_AT_EPOCH   = 302
BSTAR          = .58558179E-3
MEAN_MOTION_DOT = .90327E-3
MEAN_MOTION_DDOT = 0

CCSDS_OMM_VERS = 2.0
CREATION_DATE  = 
ORIGINATOR     = 

OBJECT_NAME    = STARLINK-37141
OBJECT_ID      = 2026-054T
CENTER_NAME    = EARTH
REF_FRAME      = TEME
TIME_SYSTEM    = UTC
MEAN_ELEMENT_THEORY = SGP/SGP4

EPOCH          = 2026-04-05T13:30:59.114880
MEAN_MOTION    = 15.75304807
ECCENTRICITY   = .00013122
INCLINATION    = 53.1578
RA_OF_ASC_NODE = 178.0279
ARG_OF_PERICENTER = 57.7872
MEAN_ANOMALY   = 302.3276

EPHEMERIS_TYPE = 0
CLASSIFICATION_TYPE = U
NORAD_CAT_ID   = 68249
ELEMENT_SET_NO = 999
REV_AT_EPOCH   = 302
BSTAR          = .70960796E-3
MEAN_MOTION_DOT = .109874E-2
MEAN_MOTION_DDOT = 0

CCSDS_OMM_VERS = 2.0
CREATION_DATE  = 
ORIGINATOR     = 

OBJECT_NAME    = STARLINK-37087
OBJECT_ID      = 2026-054U
CENTER_NAME    = EARTH
REF_FRAME      = TEME
TIME_SYSTEM    = UTC
MEAN_ELEMENT_THEORY = SGP/SGP4

EPOCH          = 2026-04-05T13:37:59.729952
MEAN_MOTION    = 15.75303354
ECCENTRICITY   = .00018957
INCLINATION    = 53.1578
RA_OF_ASC_NODE = 178.0601
ARG_OF_PERICENTER = 42.2465
MEAN_ANOMALY   = 317.8701

EPHEMERIS_TYPE = 0
CLASSIFICATION_TYPE = U
NORAD_CAT_ID   = 68250
ELEMENT_SET_NO = 999
REV_AT_EPOCH   = 302
BSTAR          = .79885784E-3
MEAN_MOTION_DOT = .123977E-2
MEAN_MOTION_DDOT = 0

